CCSDS_OMM_VERS = 2.0
CREATION_DATE  = 
ORIGINATOR     = 

OBJECT_NAME    = STARLINK-36031
OBJECT_ID      = 2025-270F
CENTER_NAME    = EARTH
REF_FRAME      = TEME
TIME_SYSTEM    = UTC
MEAN_ELEMENT_THEORY = SGP/SGP4

EPOCH          = 2025-12-16T22:00:03.000096
MEAN_MOTION    = 15.40631995
ECCENTRICITY   = .00014851
INCLINATION    = 42.9993
RA_OF_ASC_NODE = 168.3788
ARG_OF_PERICENTER = 277.7939
MEAN_ANOMALY   = 26.4145

EPHEMERIS_TYPE = 0
CLASSIFICATION_TYPE = U
NORAD_CAT_ID   = 66593
ELEMENT_SET_NO = 999
REV_AT_EPOCH   = 507
BSTAR          = .19913871E-2
MEAN_MOTION_DOT = .83609E-3
MEAN_MOTION_DDOT = 0

CCSDS_OMM_VERS = 2.0
CREATION_DATE  = 
ORIGINATOR     = 

OBJECT_NAME    = STARLINK-36032
OBJECT_ID      = 2025-270G
CENTER_NAME    = EARTH
REF_FRAME      = TEME
TIME_SYSTEM    = UTC
MEAN_ELEMENT_THEORY = SGP/SGP4

EPOCH          = 2025-12-16T22:04:29.548416
MEAN_MOTION    = 15.50584647
ECCENTRICITY   = .00014391
INCLINATION    = 42.9987
RA_OF_ASC_NODE = 168.2639
ARG_OF_PERICENTER = 272.2830
MEAN_ANOMALY   = 87.7866

EPHEMERIS_TYPE = 0
CLASSIFICATION_TYPE = U
NORAD_CAT_ID   = 66594
ELEMENT_SET_NO = 999
REV_AT_EPOCH   = 480
BSTAR          = .15354265E-2
MEAN_MOTION_DOT = .90804E-3
MEAN_MOTION_DDOT = 0

CCSDS_OMM_VERS = 2.0
CREATION_DATE  = 
ORIGINATOR     = 

OBJECT_NAME    = STARLINK-35711
OBJECT_ID      = 2025-270H
CENTER_NAME    = EARTH
REF_FRAME      = TEME
TIME_SYSTEM    = UTC
MEAN_ELEMENT_THEORY = SGP/SGP4

EPOCH          = 2025-12-16T22:03:59.889024
MEAN_MOTION    = 15.50586904
ECCENTRICITY   = .00016291
INCLINATION    = 42.9988
RA_OF_ASC_NODE = 168.2608
ARG_OF_PERICENTER = 262.4781
MEAN_ANOMALY   = 97.5894

EPHEMERIS_TYPE = 0
CLASSIFICATION_TYPE = U
NORAD_CAT_ID   = 66595
ELEMENT_SET_NO = 999
REV_AT_EPOCH   = 510
BSTAR          = .78766909E-3
MEAN_MOTION_DOT = .46153E-3
MEAN_MOTION_DDOT = 0

CCSDS_OMM_VERS = 2.0
CREATION_DATE  = 
ORIGINATOR     = 

OBJECT_NAME    = STARLINK-35811
OBJECT_ID      = 2025-270J
CENTER_NAME    = EARTH
REF_FRAME      = TEME
TIME_SYSTEM    = UTC
MEAN_ELEMENT_THEORY = SGP/SGP4

EPOCH          = 2025-12-16T22:00:03.000096
MEAN_MOTION    = 15.40649144
ECCENTRICITY   = .00020069
INCLINATION    = 42.9993
RA_OF_ASC_NODE = 168.6491
ARG_OF_PERICENTER = 275.7164
MEAN_ANOMALY   = 276.5219

EPHEMERIS_TYPE = 0
CLASSIFICATION_TYPE = U
NORAD_CAT_ID   = 66596
ELEMENT_SET_NO = 999
REV_AT_EPOCH   = 517
BSTAR          = .18633511E-2
MEAN_MOTION_DOT = .78204E-3
MEAN_MOTION_DDOT = 0

CCSDS_OMM_VERS = 2.0
CREATION_DATE  = 
ORIGINATOR     = 

OBJECT_NAME    = STARLINK-35820
OBJECT_ID      = 2025-270K
CENTER_NAME    = EARTH
REF_FRAME      = TEME
TIME_SYSTEM    = UTC
MEAN_ELEMENT_THEORY = SGP/SGP4

EPOCH          = 2025-12-16T22:00:03.000096
MEAN_MOTION    = 15.40653018
ECCENTRICITY   = .00017237
INCLINATION    = 42.9991
RA_OF_ASC_NODE = 168.5282
ARG_OF_PERICENTER = 286.6613
MEAN_ANOMALY   = 315.3172

EPHEMERIS_TYPE = 0
CLASSIFICATION_TYPE = U
NORAD_CAT_ID   = 66597
ELEMENT_SET_NO = 999
REV_AT_EPOCH   = 517
BSTAR          = .18341724E-2
MEAN_MOTION_DOT = .76971E-3
MEAN_MOTION_DDOT = 0

CCSDS_OMM_VERS = 2.0
CREATION_DATE  = 
ORIGINATOR     = 

OBJECT_NAME    = STARLINK-35981
OBJECT_ID      = 2025-270L
CENTER_NAME    = EARTH
REF_FRAME      = TEME
TIME_SYSTEM    = UTC
MEAN_ELEMENT_THEORY = SGP/SGP4

EPOCH          = 2025-12-15T05:50:49.994016
MEAN_MOTION    = 15.50578636
ECCENTRICITY   = .00015186
INCLINATION    = 42.9990
RA_OF_ASC_NODE = 178.0473
ARG_OF_PERICENTER = 290.6463
MEAN_ANOMALY   = 69.4235

EPHEMERIS_TYPE = 0
CLASSIFICATION_TYPE = U
NORAD_CAT_ID   = 66598
ELEMENT_SET_NO = 999
REV_AT_EPOCH   = 457
BSTAR          = .1433442E-2
MEAN_MOTION_DOT = .84665E-3
MEAN_MOTION_DDOT = 0

CCSDS_OMM_VERS = 2.0
CREATION_DATE  = 
ORIGINATOR     = 

OBJECT_NAME    = STARLINK-35930
OBJECT_ID      = 2025-270M
CENTER_NAME    = EARTH
REF_FRAME      = TEME
TIME_SYSTEM    = UTC
MEAN_ELEMENT_THEORY = SGP/SGP4

EPOCH          = 2025-12-16T22:02:01.493376
MEAN_MOTION    = 15.50592484
ECCENTRICITY   = .00009077
INCLINATION    = 42.9984
RA_OF_ASC_NODE = 168.2509
ARG_OF_PERICENTER = 267.7914
MEAN_ANOMALY   = 92.2843

EPHEMERIS_TYPE = 0
CLASSIFICATION_TYPE = U
NORAD_CAT_ID   = 66599
ELEMENT_SET_NO = 999
REV_AT_EPOCH   = 499
BSTAR          = .10867424E-2
MEAN_MOTION_DOT = .63965E-3
MEAN_MOTION_DDOT = 0

CCSDS_OMM_VERS = 2.0
CREATION_DATE  = 
ORIGINATOR     = 

OBJECT_NAME    = STARLINK-35980
OBJECT_ID      = 2025-270N
CENTER_NAME    = EARTH
REF_FRAME      = TEME
TIME_SYSTEM    = UTC
MEAN_ELEMENT_THEORY = SGP/SGP4

EPOCH          = 2025-12-16T23:34:47.094528
MEAN_MOTION    = 15.49045364
ECCENTRICITY   = .00033621
INCLINATION    = 42.9992
RA_OF_ASC_NODE = 167.8740
ARG_OF_PERICENTER = 312.5878
MEAN_ANOMALY   = 47.4698

EPHEMERIS_TYPE = 0
CLASSIFICATION_TYPE = U
NORAD_CAT_ID   = 66600
ELEMENT_SET_NO = 999
REV_AT_EPOCH   = 490
BSTAR          = -.34153353E-2
MEAN_MOTION_DOT = -.185712E-2
MEAN_MOTION_DDOT = 0

CCSDS_OMM_VERS = 2.0
CREATION_DATE  = 
ORIGINATOR     = 

OBJECT_NAME    = STARLINK-35978
OBJECT_ID      = 2025-270P
CENTER_NAME    = EARTH
REF_FRAME      = TEME
TIME_SYSTEM    = UTC
MEAN_ELEMENT_THEORY = SGP/SGP4

EPOCH          = 2025-12-16T22:00:03.000096
MEAN_MOTION    = 15.40672126
ECCENTRICITY   = .00015624
INCLINATION    = 42.9989
RA_OF_ASC_NODE = 168.4382
ARG_OF_PERICENTER = 252.1967
MEAN_ANOMALY   = 27.0384

EPHEMERIS_TYPE = 0
CLASSIFICATION_TYPE = U
NORAD_CAT_ID   = 66601
ELEMENT_SET_NO = 999
REV_AT_EPOCH   = 491
BSTAR          = .21198971E-2
MEAN_MOTION_DOT = .89209E-3
MEAN_MOTION_DDOT = 0

CCSDS_OMM_VERS = 2.0
CREATION_DATE  = 
ORIGINATOR     = 

OBJECT_NAME    = STARLINK-36050
OBJECT_ID      = 2025-270Q
CENTER_NAME    = EARTH
REF_FRAME      = TEME
TIME_SYSTEM    = UTC
MEAN_ELEMENT_THEORY = SGP/SGP4

EPOCH          = 2025-12-16T22:00:03.000096
MEAN_MOTION    = 15.40652896
ECCENTRICITY   = .00015457
INCLINATION    = 42.9993
RA_OF_ASC_NODE = 168.6183
ARG_OF_PERICENTER = 276.7369
MEAN_ANOMALY   = 287.9229

EPHEMERIS_TYPE = 0
CLASSIFICATION_TYPE = U
NORAD_CAT_ID   = 66602
ELEMENT_SET_NO = 999
REV_AT_EPOCH   = 497
BSTAR          = .19263984E-2
MEAN_MOTION_DOT = .80898E-3
MEAN_MOTION_DDOT = 0

CCSDS_OMM_VERS = 2.0
CREATION_DATE  = 
ORIGINATOR     = 

OBJECT_NAME    = STARLINK-36048
OBJECT_ID      = 2025-270R
CENTER_NAME    = EARTH
REF_FRAME      = TEME
TIME_SYSTEM    = UTC
MEAN_ELEMENT_THEORY = SGP/SGP4

EPOCH          = 2025-12-16T22:00:03.000096
MEAN_MOTION    = 15.40633926
ECCENTRICITY   = .00012761
INCLINATION    = 42.9989
RA_OF_ASC_NODE = 168.3466
ARG_OF_PERICENTER = 275.7722
MEAN_ANOMALY   = 40.8541

EPHEMERIS_TYPE = 0
CLASSIFICATION_TYPE = U
NORAD_CAT_ID   = 66603
ELEMENT_SET_NO = 999
REV_AT_EPOCH   = 497
BSTAR          = .20627827E-2
MEAN_MOTION_DOT = .86658E-3
MEAN_MOTION_DDOT = 0

CCSDS_OMM_VERS = 2.0
CREATION_DATE  = 
ORIGINATOR     = 

OBJECT_NAME    = STARLINK-35977
OBJECT_ID      = 2025-270S
CENTER_NAME    = EARTH
REF_FRAME      = TEME
TIME_SYSTEM    = UTC
MEAN_ELEMENT_THEORY = SGP/SGP4

EPOCH          = 2025-12-15T05:47:51.952128
MEAN_MOTION    = 15.50594552
ECCENTRICITY   = .00014478
INCLINATION    = 42.9989
RA_OF_ASC_NODE = 178.0309
ARG_OF_PERICENTER = 284.8784
MEAN_ANOMALY   = 75.1916

EPHEMERIS_TYPE = 0
CLASSIFICATION_TYPE = U
NORAD_CAT_ID   = 66604
ELEMENT_SET_NO = 999
REV_AT_EPOCH   = 473
BSTAR          = .84362823E-3
MEAN_MOTION_DOT = .49491E-3
MEAN_MOTION_DDOT = 0

CCSDS_OMM_VERS = 2.0
CREATION_DATE  = 
ORIGINATOR     = 

OBJECT_NAME    = STARLINK-36052
OBJECT_ID      = 2025-270T
CENTER_NAME    = EARTH
REF_FRAME      = TEME
TIME_SYSTEM    = UTC
MEAN_ELEMENT_THEORY = SGP/SGP4

EPOCH          = 2025-12-16T21:59:02.986656
MEAN_MOTION    = 15.50607188
ECCENTRICITY   = .00023224
INCLINATION    = 43.0013
RA_OF_ASC_NODE = 168.2332
ARG_OF_PERICENTER = 270.6727
MEAN_ANOMALY   = 89.3867

EPHEMERIS_TYPE = 0
CLASSIFICATION_TYPE = U
NORAD_CAT_ID   = 66605
ELEMENT_SET_NO = 999
REV_AT_EPOCH   = 499
BSTAR          = .15957771E-2
MEAN_MOTION_DOT = .94511E-3
MEAN_MOTION_DDOT = 0

CCSDS_OMM_VERS = 2.0
CREATION_DATE  = 
ORIGINATOR     = 

OBJECT_NAME    = STARLINK-36063
OBJECT_ID      = 2025-270U
CENTER_NAME    = EARTH
REF_FRAME      = TEME
TIME_SYSTEM    = UTC
MEAN_ELEMENT_THEORY = SGP/SGP4

EPOCH          = 2025-12-16T21:58:04.249344
MEAN_MOTION    = 15.50584205
ECCENTRICITY   = .00015744
INCLINATION    = 42.9985
RA_OF_ASC_NODE = 168.2266
ARG_OF_PERICENTER = 263.3817
MEAN_ANOMALY   = 96.6864

EPHEMERIS_TYPE = 0
CLASSIFICATION_TYPE = U
NORAD_CAT_ID   = 66606
ELEMENT_SET_NO = 999
REV_AT_EPOCH   = 499
BSTAR          = .10034596E-2
MEAN_MOTION_DOT = .58983E-3
MEAN_MOTION_DDOT = 0

CCSDS_OMM_VERS = 2.0
CREATION_DATE  = 
ORIGINATOR     = 

OBJECT_NAME    = STARLINK-35993
OBJECT_ID      = 2025-270V
CENTER_NAME    = EARTH
REF_FRAME      = TEME
TIME_SYSTEM    = UTC
MEAN_ELEMENT_THEORY = SGP/SGP4

EPOCH          = 2025-12-16T21:58:33.930336
MEAN_MOTION    = 15.50594830
ECCENTRICITY   = .00016342
INCLINATION    = 42.9983
RA_OF_ASC_NODE = 168.2299
ARG_OF_PERICENTER = 262.7641
MEAN_ANOMALY   = 97.3033

EPHEMERIS_TYPE = 0
CLASSIFICATION_TYPE = U
NORAD_CAT_ID   = 66607
ELEMENT_SET_NO = 999
REV_AT_EPOCH   = 489
BSTAR          = .15509029E-2
MEAN_MOTION_DOT = .91768E-3
MEAN_MOTION_DDOT = 0

